NORAD_CAT_ID,OBJECT_NAME,OBJECT_TYPE,EPOCH,MEAN_MOTION,ECCENTRICITY,INCLINATION,RA_OF_ASC_NODE,ARG_OF_PERICENTER,MEAN_ANOMALY,BSTAR,MEAN_MOTION_DOT,MEAN_MOTION_DDOT,TLE_LINE0,TLE_LINE1,TLE_LINE2,SEMIMAJOR_AXIS,PERIOD,APOGEE,PERIGEE,DECAYED
56785.0,STARLINK-5931,PAYLOAD,2023-10-18 10:42:25,14.98559557,0.0002353,70.001,26.3387,269.7272,90.3617,-0.003555,-0.00042504,0.0,0 STARLINK-5931,1 56785U 23078U   23291.44613411 -.00042504  00000-0 -35550-2 0  9999,2 56785  70.0010  26.3387 0002353 269.7272  90.3617 14.98559557 22130,6949.483,96.092,572.983,569.713,0.0
56785.0,STARLINK-5931,PAYLOAD,2023-10-18 17:06:57,14.98477735,0.000224,70.0009,25.665,270.7733,89.317,-0.0020704,-0.00024803,0.0,0 STARLINK-5931,1 56785U 23078U   23291.71316269 -.00024803  00000-0 -20704-2 0  9997,2 56785  70.0009  25.6650 0002240 270.7733  89.3170 14.98477735 22175,6949.736,96.098,573.158,570.044,0.0
56785.0,STARLINK-5931,PAYLOAD,2023-10-19 06:00:00,14.98347315,0.0002582,70.0022,24.3123,269.7019,105.1395,0.0038124,0.00045713,0.0,0 STARLINK-5931,1 56785U 23078U   23292.25001157  .00045713  00000-0  38124-2 0  9990,2 56785  70.0022  24.3123 0002582 269.7019 105.1395 14.98347315 22250,6950.139,96.106,573.799,570.21,0.0
56785.0,STARLINK-5931,PAYLOAD,2023-10-19 12:00:00,14.98408184,0.000265,70.0022,23.6819,271.9957,10.9809,-0.010658,-0.00125267,0.0,0 STARLINK-5931,1 56785U 23078U   23292.50001157 -.00125267  00000-0 -10658-1 0  9994,2 56785  70.0022  23.6819 0002650 271.9957  10.9809 14.98408184 22295,6949.951,96.102,573.658,569.974,0.0
56785.0,STARLINK-5931,PAYLOAD,2023-10-19 14:00:01,14.98386518,0.0002626,70.0022,23.4718,273.811,98.5552,-0.0098395,-0.00115745,0.0,0 STARLINK-5931,1 56785U 23078U   23292.58334491 -.00115745  00000-0 -98395-2 0  9997,2 56785  70.0022  23.4718 0002626 273.8110  98.5552 14.98386518  5728,6950.018,96.103,573.708,570.058,0.0
56785.0,STARLINK-5931,PAYLOAD,2023-10-19 20:00:01,14.98315521,0.0002628,70.0018,22.8413,271.5549,8.9475,-0.0024537,-0.00029237,0.0,0 STARLINK-5931,1 56785U 23078U   23292.83334491 -.00029237  00000-0 -24537-2 0  9992,2 56785  70.0018  22.8413 0002628 271.5549   8.9475 14.98315521 22343,6950.238,96.108,573.929,570.276,0.0
56785.0,STARLINK-5931,PAYLOAD,2023-10-19 22:00:00,14.98309996,0.0002612,70.0019,22.6312,269.429,100.4387,-0.0019215,-0.00022933,0.0,0 STARLINK-5931,1 56785U 23078U   23292.91667824 -.00022933  00000-0 -19215-2 0  9993,2 56785  70.0019  22.6312 0002612 269.4290 100.4387 14.98309996  5779,6950.255,96.108,573.935,570.304,0.0
56785.0,STARLINK-5931,PAYLOAD,2023-10-20 10:46:30,14.98325939,0.0002475,70.0006,21.2887,272.5812,87.5064,-0.00022402,-2.764e-05,0.0,0 STARLINK-5931,1 56785U 23078U   23293.44896532 -.00002764  00000-0 -22402-3 0  9995,2 56785  70.0006  21.2887 0002475 272.5812  87.5064 14.98325939 22433,6950.205,96.107,573.791,570.35,0.0
56785.0,STARLINK-5931,PAYLOAD,2023-10-20 12:22:38,14.98328001,0.0002377,70.0006,21.1206,266.8078,93.2809,-0.00022114,-2.73e-05,0.0,0 STARLINK-5931,1 56785U 23078U   23293.51572394 -.00002730  00000-0 -22114-3 0  9993,2 56785  70.0006  21.1206 0002377 266.8078  93.2809 14.98328001 22870,6950.199,96.107,573.716,570.412,0.0
56785.0,STARLINK-5931,PAYLOAD,2023-10-20 15:34:54,14.98326611,0.0002328,70.0009,20.784,262.5554,97.5341,-0.00018099,-2.251e-05,0.0,0 STARLINK-5931,1 56785U 23078U   23293.64924353 -.00002251  00000-0 -18099-3 0  9998,2 56785  70.0009  20.7840 0002328 262.5554  97.5341 14.98326611 22895,6950.203,96.107,573.686,570.45,0.0
56785.0,STARLINK-5931,PAYLOAD,2023-10-21 10:48:30,14.98334565,0.0002493,70.0012,18.7648,270.7737,89.3136,-6.6966e-05,-8.92e-06,0.0,0 STARLINK-5931,1 56785U 23078U   23294.45035290 -.00000892  00000-0 -66966-4 0  9997,2 56785  70.0012  18.7648 0002493 270.7737  89.3136 14.98334565 22583,6950.179,96.107,573.776,570.311,0.0
56785.0,STARLINK-5931,PAYLOAD,2023-10-21 12:24:38,14.98339325,0.0002137,70.0028,18.5988,264.1283,95.9633,-4.4364e-05,-6.22e-06,0.0,0 STARLINK-5931,1 56785U 23078U   23294.51710926 -.00000622  00000-0 -44364-4 0  9999,2 56785  70.0028  18.5988 0002137 264.1283  95.9633 14.98339325 23027,6950.164,96.106,573.514,570.544,0.0
56785.0,STARLINK-5931,PAYLOAD,2023-10-22 10:50:32,14.98313589,0.0002129,70.0026,16.2409,254.1299,105.9626,2.1218e-05,1.6e-06,0.0,0 STARLINK-5931,1 56785U 23078U   23295.45176246  .00000160  00000-0  21218-4 0  9992,2 56785  70.0026  16.2409 0002129 254.1299 105.9626 14.98313589 22730,6950.244,96.108,573.588,570.629,0.0
56785.0,STARLINK-5931,PAYLOAD,2023-10-22 14:02:48,14.98316745,0.0002005,70.0027,15.9053,228.489,131.6097,4.0815e-07,-8.8e-07,0.0,0 STARLINK-5931,1 56785U 23078U   23295.58528212 -.00000088  00000-0  40815-6 0  9996,2 56785  70.0027  15.9053 0002005 228.4890 131.6097 14.98316745 23181,6950.234,96.108,573.492,570.705,0.0
56785.0,STARLINK-5931,PAYLOAD,2023-10-22 15:38:56,14.98306395,0.0001936,70.0023,15.7362,246.6343,113.4612,0.00019315,2.211e-05,0.0,0 STARLINK-5931,1 56785U 23078U   23295.65204472  .00002211  00000-0  19315-3 0  9990,2 56785  70.0023  15.7362 0001936 246.6343 113.4612 14.98306395 23197,6950.266,96.109,573.476,570.785,0.0
56785.0,STARLINK-5931,PAYLOAD,2023-10-23 10:52:33,14.98320523,0.0001828,70.0029,13.717,247.063,113.0337,-0.00011959,-1.519e-05,0.0,0 STARLINK-5931,1 56785U 23078U   23296.45316427 -.00001519  00000-0 -11959-3 0  9991,2 56785  70.0029  13.7170 0001828 247.0630 113.0337 14.98320523 22886,6950.222,96.108,573.358,570.817,0.0
56785.0,STARLINK-5931,PAYLOAD,2023-10-23 12:28:40,14.98332393,0.0001902,70.003,13.5486,235.5608,124.5372,-0.0001387,-1.747e-05,0.0,0 STARLINK-5931,1 56785U 23078U   23296.51991676 -.00001747  00000-0 -13870-3 0  9990,2 56785  70.0030  13.5486 0001902 235.5608 124.5372 14.98332393 22891,6950.185,96.107,573.372,570.729,0.0
56785.0,STARLINK-5931,PAYLOAD,2023-10-24 10:54:31,14.98344416,0.0002517,70.0028,11.1907,272.2654,87.8216,0.00036557,4.273e-05,0.0,0 STARLINK-5931,1 56785U 23078U   23297.45453558  .00004273  00000-0  36557-3 0  9998,2 56785  70.0028  11.1907 0002517 272.2654  87.8216 14.98344416 23036,6950.148,96.106,573.763,570.264,0.0
56785.0,STARLINK-5931,PAYLOAD,2023-10-24 12:30:41,14.98319288,0.0002089,70.0028,11.0236,268.8441,91.2478,3.9814e-05,3.82e-06,0.0,0 STARLINK-5931,1 56785U 23078U   23297.52131940  .00000382  00000-0  39814-4 0  9991,2 56785  70.0028  11.0236 0002089 268.8441  91.2478 14.98319288 23475,6950.226,96.108,573.543,570.639,0.0
56785.0,STARLINK-5931,PAYLOAD,2023-10-25 14:08:50,14.98331589,0.0002147,70.0015,8.3286,268.229,91.8623,-2.1435e-06,-1.18e-06,0.0,0 STARLINK-5931,1 56785U 23078U   23298.58947193 -.00000118  00000-0 -21435-5 0  9993,2 56785  70.0015   8.3286 0002147 268.2290  91.8623 14.98331589 23203,6950.188,96.107,573.545,570.561,0.0
56785.0,STARLINK-5931,PAYLOAD,2023-10-25 22:09:30,14.98330385,0.0002345,70.0026,7.4867,264.829,95.2601,-6.8105e-05,-9.05e-06,0.0,0 STARLINK-5931,1 56785U 23078U   23298.92327335 -.00000905  00000-0 -68105-4 0  9999,2 56785  70.0026   7.4867 0002345 264.8290  95.2601 14.98330385 23681,6950.192,96.107,573.687,570.427,0.0
56785.0,STARLINK-5931,PAYLOAD,2023-10-26 10:58:34,14.98342951,0.0002623,70.001,6.1405,262.3652,97.7209,0.00013782,1.552e-05,0.0,0 STARLINK-5931,1 56785U 23078U   23299.45733927  .00001552  00000-0  13782-3 0  9993,2 56785  70.0010   6.1405 0002623 262.3652  97.7209 14.98342951 23337,6950.153,96.106,573.841,570.195,0.0
56785.0,STARLINK-5931,PAYLOAD,2023-10-26 14:10:50,14.98337919,0.0002644,70.0014,5.8035,268.4416,91.644,-6.6834e-05,-8.9e-06,0.0,0 STARLINK-5931,1 56785U 23078U   23299.59086688 -.00000890  00000-0 -66834-4 0  9996,2 56785  70.0014   5.8035 0002644 268.4416  91.6440 14.98337919 23781,6950.168,96.106,573.871,570.196,0.0
56785.0,STARLINK-5931,PAYLOAD,2023-10-27 11:00:35,14.98336573,0.000278,70.0005,3.6161,269.3283,90.7557,9.6e-05,1.053e-05,0.0,0 STARLINK-5931,1 56785U 23078U   23300.45874055  .00001053  00000-0  96000-4 0  9995,2 56785  70.0005   3.6161 0002780 269.3283  90.7557 14.98336573 23919,6950.173,96.107,573.97,570.105,0.0
56785.0,STARLINK-5931,PAYLOAD,2023-10-27 22:13:32,14.98332586,0.000278,70.0008,2.4371,282.8019,77.2829,-3.2121e-05,-4.76e-06,0.0,0 STARLINK-5931,1 56785U 23078U   23300.92606633 -.00000476  00000-0 -32121-4 0  9996,2 56785  70.0008   2.4371 0002780 282.8019  77.2829 14.98332586 23988,6950.185,96.107,573.982,570.118,0.0
56785.0,STARLINK-5931,PAYLOAD,2023-10-28 11:02:37,14.98321861,0.0002662,70.0006,1.0899,265.2152,94.8703,1.0132e-05,2.8e-07,0.0,0 STARLINK-5931,1 56785U 23078U   23301.46015191  .00000028  00000-0  10132-4 0  9998,2 56785  70.0006   1.0899 0002662 265.2152  94.8703 14.98321861 23630,6950.218,96.108,573.933,570.233,0.0
56785.0,STARLINK-5931,PAYLOAD,2023-10-28 14:14:53,14.98321344,0.0002866,70.0004,0.7534,268.7705,91.3125,2.3728e-05,1.9e-06,0.0,0 STARLINK-5931,1 56785U 23078U   23301.59367246  .00000190  00000-0  23728-4 0  9998,2 56785  70.0004   0.7534 0002866 268.7705  91.3125 14.98321344 24084,6950.22,96.108,574.077,570.093,0.0
56785.0,STARLINK-5931,PAYLOAD,2023-10-29 12:40:44,14.98341785,0.0002574,70.0017,358.3976,264.2989,95.7876,9.4686e-05,1.037e-05,0.0,0 STARLINK-5931,1 56785U 23078U   23302.52829491  .00001037  00000-0  94686-4 0  9999,2 56785  70.0017 358.3976 0002574 264.2989  95.7876 14.98341785 23790,6950.156,96.106,573.81,570.232,0.0
56785.0,STARLINK-5931,PAYLOAD,2023-10-29 14:16:52,14.98365745,0.0002429,70.0013,358.2287,267.6909,92.3972,-0.00026838,-3.297e-05,0.0,0 STARLINK-5931,1 56785U 23078U   23302.59504787 -.00003297  00000-0 -26838-3 0  9999,2 56785  70.0013 358.2287 0002429 267.6909  92.3972 14.98365745 23802,6950.082,96.105,573.636,570.259,0.0
56785.0,STARLINK-5931,PAYLOAD,2023-10-30 04:42:06,14.98320393,0.0002844,70.0009,356.7144,272.6052,87.4782,8.1062e-06,4e-08,0.0,0 STARLINK-5931,1 56785U 23078U   23303.19590994  .00000004  00000-0  81062-5 0  9994,2 56785  70.0009 356.7144 0002844 272.6052  87.4782 14.98320393 23891,6950.223,96.108,574.064,570.111,0.0
